ORBCOMM FM06            
1 25118U 97084G   26202.43251985  .00000591  00000+0  19789-3 0  9995
2 25118  45.0126 247.8448 0001865 252.1141 122.4170 14.47635106499354
ORBCOMM FM04            
1 25159U 98007C   26203.02175847  .00000574  00000+0  24178-3 0  9993
2 25159 107.9632 241.1173 0042041 265.3218  94.3121 14.35792566481594
ORBCOMM FM19            
1 25415U 98046C   26202.63495882  .00000629  00000+0  24520-3 0  9993
2 25415  44.9940  79.8100 0003281 105.1931 275.6377 14.39549967461744
ORBCOMM FM20            
1 25416U 98046D   26202.40030915  .00000449  00000+0  19344-3 0  9999
2 25416  44.9942  89.2269 0000930  43.8049 316.2873 14.38106485461717
ORBCOMM FM27            
1 25481U 98053G   26202.61840125  .00000568  00000+0  22717-3 0  9994
2 25481  45.0037 171.8079 0002109 314.1707  45.8968 14.39192713455193
ORBCOMM FM32            
1 25982U 99065C   26202.21356163  .00000360  00000+0  16713-3 0  9993
2 25982  45.0165  12.1737 0006203 220.5400 139.4987 14.37173300391984
ORBCOMM FM109           
1 40086U 14040A   26202.54713748  .00000082  00000+0  53546-4 0  9994
2 40086  47.0029 289.0324 0001121 343.3049  16.7800 14.58874474639362
ORBCOMM FM110           
1 41182U 15081D   26203.30504682  .00000613  00000+0  16564-3 0  9996
2 41182  47.0003 195.3889 0003817 250.1691 109.8783 14.58926823562757
ORBCOMM FM118           
1 41183U 15081E   26202.72318850  .00000537  00000+0  14973-3 0  9999
2 41183  47.0024 198.4808 0003181 214.1701 145.8981 14.58910590562778
ORBCOMM FM112           
1 41184U 15081F   26202.79552286  .00000447  00000+0  13062-3 0  9998
2 41184  46.9989 106.5867 0003282 357.6021   2.4849 14.58945312564001
ORBCOMM FM113           
1 41185U 15081G   26202.97883675  .00000318  00000+0  10337-3 0  9997
2 41185  47.0007 106.1149 0001838 348.9820  11.1026 14.58887248564017
ORBCOMM FM108           
1 41187U 15081J   26202.87221630  .00000496  00000+0  14105-3 0  9999
2 41187  47.0060  18.2008 0002216 348.5683  11.5153 14.58917269565146
ORBCOMM FM117           
1 41188U 15081K   26202.83800916  .00000478  00000+0  13724-3 0  9992
2 41188  47.0022  16.9879 0002603 356.9354   3.1515 14.58904165565188
ORBCOMM FM116           
1 41189U 15081L   26202.74961961  .00000381  00000+0  11664-3 0  9995
2 41189  47.0022 107.1953 0001734 247.0710 112.9993 14.58912630563986
